CCSDS_OMM_VERS = 2.0
CREATION_DATE  = 
ORIGINATOR     = 

OBJECT_NAME    = STARLINK-36616
OBJECT_ID      = 2026-022AA
CENTER_NAME    = EARTH
REF_FRAME      = TEME
TIME_SYSTEM    = UTC
MEAN_ELEMENT_THEORY = SGP/SGP4

EPOCH          = 2026-02-11T14:00:01.999872
MEAN_MOTION    = 15.93451176
ECCENTRICITY   = .00015421
INCLINATION    = 97.2793
RA_OF_ASC_NODE = 75.2561
ARG_OF_PERICENTER = 92.5531
MEAN_ANOMALY   = 71.1209

EPHEMERIS_TYPE = 0
CLASSIFICATION_TYPE = U
NORAD_CAT_ID   = 67672
ELEMENT_SET_NO = 999
REV_AT_EPOCH   = 269
BSTAR          = -.51620019E-2
MEAN_MOTION_DOT = -.1816142E-1
MEAN_MOTION_DDOT = .92365234E-3

CCSDS_OMM_VERS = 2.0
CREATION_DATE  = 
ORIGINATOR     = 

OBJECT_NAME    = COSMOS 2600
OBJECT_ID      = 2026-023A
CENTER_NAME    = EARTH
REF_FRAME      = TEME
TIME_SYSTEM    = UTC
MEAN_ELEMENT_THEORY = SGP/SGP4

EPOCH          = 2026-02-11T14:31:13.837728
MEAN_MOTION    = 15.81823598
ECCENTRICITY   = .00020872
INCLINATION    = 96.6490
RA_OF_ASC_NODE = 119.0667
ARG_OF_PERICENTER = 67.1270
MEAN_ANOMALY   = 293.0221

EPHEMERIS_TYPE = 0
CLASSIFICATION_TYPE = U
NORAD_CAT_ID   = 67674
ELEMENT_SET_NO = 999
REV_AT_EPOCH   = 92
BSTAR          = .41028694E-3
MEAN_MOTION_DOT = .82952E-3
MEAN_MOTION_DDOT = 0

CCSDS_OMM_VERS = 2.0
CREATION_DATE  = 
ORIGINATOR     = 

OBJECT_NAME    = 2026-023B
OBJECT_ID      = 2026-023B
CENTER_NAME    = EARTH
REF_FRAME      = TEME
TIME_SYSTEM    = UTC
MEAN_ELEMENT_THEORY = SGP/SGP4

EPOCH          = 2026-02-11T18:16:51.589344
MEAN_MOTION    = 15.22335556
ECCENTRICITY   = .0017375
INCLINATION    = 96.6408
RA_OF_ASC_NODE = 118.7171
ARG_OF_PERICENTER = 223.7743
MEAN_ANOMALY   = 136.2119

EPHEMERIS_TYPE = 0
CLASSIFICATION_TYPE = U
NORAD_CAT_ID   = 67675
ELEMENT_SET_NO = 999
REV_AT_EPOCH   = 91
BSTAR          = .70906E-3
MEAN_MOTION_DOT = .16378E-3
MEAN_MOTION_DDOT = 0

CCSDS_OMM_VERS = 2.0
CREATION_DATE  = 
ORIGINATOR     = 

OBJECT_NAME    = 2026-023C
OBJECT_ID      = 2026-023C
CENTER_NAME    = EARTH
REF_FRAME      = TEME
TIME_SYSTEM    = UTC
MEAN_ELEMENT_THEORY = SGP/SGP4

EPOCH          = 2026-02-11T13:32:37.609152
MEAN_MOTION    = 15.22396467
ECCENTRICITY   = .00183079
INCLINATION    = 96.6442
RA_OF_ASC_NODE = 118.5528
ARG_OF_PERICENTER = 214.5863
MEAN_ANOMALY   = 145.4186

EPHEMERIS_TYPE = 0
CLASSIFICATION_TYPE = U
NORAD_CAT_ID   = 67676
ELEMENT_SET_NO = 999
REV_AT_EPOCH   = 104
BSTAR          = .64558317E-3
MEAN_MOTION_DOT = .14937E-3
MEAN_MOTION_DDOT = 0

CCSDS_OMM_VERS = 2.0
CREATION_DATE  = 
ORIGINATOR     = 

OBJECT_NAME    = 2026-023D
OBJECT_ID      = 2026-023D
CENTER_NAME    = EARTH
REF_FRAME      = TEME
TIME_SYSTEM    = UTC
MEAN_ELEMENT_THEORY = SGP/SGP4

EPOCH          = 2026-02-11T13:33:11.808864
MEAN_MOTION    = 15.22276685
ECCENTRICITY   = .00186683
INCLINATION    = 96.6477
RA_OF_ASC_NODE = 118.5362
ARG_OF_PERICENTER = 219.2940
MEAN_ANOMALY   = 140.6944

EPHEMERIS_TYPE = 0
CLASSIFICATION_TYPE = U
NORAD_CAT_ID   = 67677
ELEMENT_SET_NO = 999
REV_AT_EPOCH   = 87
BSTAR          = .58296544E-3
MEAN_MOTION_DOT = .13435E-3
MEAN_MOTION_DDOT = 0

CCSDS_OMM_VERS = 2.0
CREATION_DATE  = 
ORIGINATOR     = 

OBJECT_NAME    = 2026-023E
OBJECT_ID      = 2026-023E
CENTER_NAME    = EARTH
REF_FRAME      = TEME
TIME_SYSTEM    = UTC
MEAN_ELEMENT_THEORY = SGP/SGP4

EPOCH          = 2026-02-11T18:16:44.342112
MEAN_MOTION    = 15.22369390
ECCENTRICITY   = .0018555
INCLINATION    = 96.6369
RA_OF_ASC_NODE = 118.7187
ARG_OF_PERICENTER = 217.8201
MEAN_ANOMALY   = 142.1735

EPHEMERIS_TYPE = 0
CLASSIFICATION_TYPE = U
NORAD_CAT_ID   = 67678
ELEMENT_SET_NO = 999
REV_AT_EPOCH   = 90
BSTAR          = .58525E-3
MEAN_MOTION_DOT = .13524E-3
MEAN_MOTION_DDOT = 0

CCSDS_OMM_VERS = 2.0
CREATION_DATE  = 
ORIGINATOR     = 

OBJECT_NAME    = 2026-023F
OBJECT_ID      = 2026-023F
CENTER_NAME    = EARTH
REF_FRAME      = TEME
TIME_SYSTEM    = UTC
MEAN_ELEMENT_THEORY = SGP/SGP4

EPOCH          = 2026-02-11T11:57:19.497312
MEAN_MOTION    = 15.22490282
ECCENTRICITY   = .00206977
INCLINATION    = 96.6379
RA_OF_ASC_NODE = 120.9828
ARG_OF_PERICENTER = 212.3252
MEAN_ANOMALY   = 147.6720

EPHEMERIS_TYPE = 0
CLASSIFICATION_TYPE = U
NORAD_CAT_ID   = 67679
ELEMENT_SET_NO = 999
REV_AT_EPOCH   = 85
BSTAR          = .33126954E-3
MEAN_MOTION_DOT = .766E-4
MEAN_MOTION_DDOT = 0

CCSDS_OMM_VERS = 2.0
CREATION_DATE  = 
ORIGINATOR     = 

OBJECT_NAME    = 2026-023G
OBJECT_ID      = 2026-023G
CENTER_NAME    = EARTH
REF_FRAME      = TEME
TIME_SYSTEM    = UTC
MEAN_ELEMENT_THEORY = SGP/SGP4

EPOCH          = 2026-02-11T18:16:07.603104
MEAN_MOTION    = 15.22461471
ECCENTRICITY   = .0021981
INCLINATION    = 96.6308
RA_OF_ASC_NODE = 121.2169
ARG_OF_PERICENTER = 208.3069
MEAN_ANOMALY   = 151.6977

EPHEMERIS_TYPE = 0
CLASSIFICATION_TYPE = U
NORAD_CAT_ID   = 67680
ELEMENT_SET_NO = 999
REV_AT_EPOCH   = 89
BSTAR          = .18544E-3
MEAN_MOTION_DOT = .426E-4
MEAN_MOTION_DDOT = 0

CCSDS_OMM_VERS = 2.0
CREATION_DATE  = 
ORIGINATOR     = 

OBJECT_NAME    = 2026-023H
OBJECT_ID      = 2026-023H
CENTER_NAME    = EARTH
REF_FRAME      = TEME
TIME_SYSTEM    = UTC
MEAN_ELEMENT_THEORY = SGP/SGP4

EPOCH          = 2026-02-11T18:15:54.484128
MEAN_MOTION    = 15.22485070
ECCENTRICITY   = .0021935
INCLINATION    = 96.6434
RA_OF_ASC_NODE = 121.2090
ARG_OF_PERICENTER = 207.5112
MEAN_ANOMALY   = 152.4967

EPHEMERIS_TYPE = 0
CLASSIFICATION_TYPE = U
NORAD_CAT_ID   = 67681
ELEMENT_SET_NO = 999
REV_AT_EPOCH   = 89
BSTAR          = .13313E-3
MEAN_MOTION_DOT = .3043E-4
MEAN_MOTION_DDOT = 0

CCSDS_OMM_VERS = 2.0
CREATION_DATE  = 
ORIGINATOR     = 

OBJECT_NAME    = 2026-023J
OBJECT_ID      = 2026-023J
CENTER_NAME    = EARTH
REF_FRAME      = TEME
TIME_SYSTEM    = UTC
MEAN_ELEMENT_THEORY = SGP/SGP4

EPOCH          = 2026-02-11T10:22:34.505184
MEAN_MOTION    = 15.22523803
ECCENTRICITY   = .00221708
INCLINATION    = 96.6405
RA_OF_ASC_NODE = 120.9333
ARG_OF_PERICENTER = 206.2323
MEAN_ANOMALY   = 153.7794

EPHEMERIS_TYPE = 0
CLASSIFICATION_TYPE = U
NORAD_CAT_ID   = 67682
ELEMENT_SET_NO = 999
REV_AT_EPOCH   = 84
BSTAR          = .23937415E-3
MEAN_MOTION_DOT = .5528E-4
MEAN_MOTION_DDOT = 0

CCSDS_OMM_VERS = 2.0
CREATION_DATE  = 
ORIGINATOR     = 

OBJECT_NAME    = ISS OBJECT XZ
OBJECT_ID      = 1998-067XZ
CENTER_NAME    = EARTH
REF_FRAME      = TEME
TIME_SYSTEM    = UTC
MEAN_ELEMENT_THEORY = SGP/SGP4

EPOCH          = 2026-02-11T15:04:37.124544
MEAN_MOTION    = 15.49713606
ECCENTRICITY   = .0010783
INCLINATION    = 51.6304
RA_OF_ASC_NODE = 201.1284
ARG_OF_PERICENTER = 102.2228
MEAN_ANOMALY   = 257.9969

EPHEMERIS_TYPE = 0
CLASSIFICATION_TYPE = U
NORAD_CAT_ID   = 67683
ELEMENT_SET_NO = 999
REV_AT_EPOCH   = 74
BSTAR          = .73126713E-3
MEAN_MOTION_DOT = .41158E-3
MEAN_MOTION_DDOT = 0

CCSDS_OMM_VERS = 2.0
CREATION_DATE  = 
ORIGINATOR     = 

OBJECT_NAME    = GXIBA-1
OBJECT_ID      = 1998-067YA
CENTER_NAME    = EARTH
REF_FRAME      = TEME
TIME_SYSTEM    = UTC
MEAN_ELEMENT_THEORY = SGP/SGP4

EPOCH          = 2026-02-11T15:01:41.945088
MEAN_MOTION    = 15.50357854
ECCENTRICITY   = .00126539
INCLINATION    = 51.6305
RA_OF_ASC_NODE = 201.1159
ARG_OF_PERICENTER = 96.7363
MEAN_ANOMALY   = 263.5066

EPHEMERIS_TYPE = 0
CLASSIFICATION_TYPE = U
NORAD_CAT_ID   = 67684
ELEMENT_SET_NO = 999
REV_AT_EPOCH   = 74
BSTAR          = .1245049E-2
MEAN_MOTION_DOT = .72379E-3
MEAN_MOTION_DDOT = 0

