STARLINK-36616          
1 67672U 26022AA  26042.58335648 -.01816142  92365-3 -51620-2 0  9995
2 67672  97.2793  75.2561 0001542  92.5531  71.1209 15.93451176  2699
COSMOS 2600             
1 67674U 26023A   26042.60502127  .00082952  00000+0  41029-3 0  9994
2 67674  96.6490 119.0667 0002087  67.1270 293.0221 15.81823598   926
2026-023B               
1 67675U 26023B   26042.76170821  .00016378  00000+0  70906-3 0  9999
2 67675  96.6408 118.7171 0017375 223.7743 136.2119 15.22335556   913
2026-023C               
1 67676U 26023C   26042.56432418  .00014937  00000+0  64558-3 0  9996
2 67676  96.6442 118.5528 0018307 214.5863 145.4186 15.22396467  1042
2026-023D               
1 67677U 26023D   26042.56472001  .00013435  00000+0  58297-3 0  9994
2 67677  96.6477 118.5362 0018668 219.2940 140.6944 15.22276685   873
2026-023E               
1 67678U 26023E   26042.76162433  .00013524  00000+0  58525-3 0  9995
2 67678  96.6369 118.7187 0018555 217.8201 142.1735 15.22369390   905
2026-023F               
1 67679U 26023F   26042.49814233  .00007660  00000+0  33127-3 0  9993
2 67679  96.6379 120.9828 0020697 212.3252 147.6720 15.22490282   853
2026-023G               
1 67680U 26023G   26042.76119911  .00004260  00000+0  18544-3 0  9995
2 67680  96.6308 121.2169 0021981 208.3069 151.6977 15.22461471   898
2026-023H               
1 67681U 26023H   26042.76104727  .00003043  00000+0  13313-3 0  9992
2 67681  96.6434 121.2090 0021935 207.5112 152.4967 15.22485070   890
2026-023J               
1 67682U 26023J   26042.43234381  .00005528  00000+0  23937-3 0  9990
2 67682  96.6405 120.9333 0022170 206.2323 153.7794 15.22523803   841
ISS OBJECT XZ           
1 67683U 98067XZ  26042.62820746  .00041158  00000+0  73127-3 0  9990
2 67683  51.6304 201.1284 0010783 102.2228 257.9969 15.49713606   745
GXIBA-1                 
1 67684U 98067YA  26042.62617992  .00072379  00000+0  12450-2 0  9998
2 67684  51.6305 201.1159 0012653  96.7363 263.5066 15.50357854   745
